#aV2010  9 13  0  0   .00000000      96 DD+AD WGS84 FIT  NGA
## 1601  86400.00000000   900.00000000 55452  .0000000000000
+   32     1  2  3  4  5  6  7  8  9 10 11 12 13 14 15 16 17
+         18 19 20 21 22 23 24 25 26 27 28 29 30 31 32  0  0
+          0  0  0  0  0  0  0  0  0  0  0  0  0  0  0  0  0
+          0  0  0  0  0  0  0  0  0  0  0  0  0  0  0  0  0
+          0  0  0  0  0  0  0  0  0  0  0  0  0  0  0  0  0
++         0  0  0  0  0  0  0  0  0  0  0  0  0  0  0  0  0
++         0  0  0  0  0  0  0  0  0  0  0  0  0  0  0  0  0
++         0  0  0  0  0  0  0  0  0  0  0  0  0  0  0  0  0
++         0  0  0  0  0  0  0  0  0  0  0  0  0  0  0  0  0
++         0  0  0  0  0  0  0  0  0  0  0  0  0  0  0  0  0
%c cc cc ccc ccc cccc cccc cccc cccc ccccc ccccc ccccc ccccc
%c cc cc ccc ccc cccc cccc cccc cccc ccccc ccccc ccccc ccccc
%f  0.0000000  0.000000000  0.00000000000  0.000000000000000
%f  0.0000000  0.000000000  0.00000000000  0.000000000000000
%i    0    0    0    0      0      0      0      0         0
%i    0    0    0    0      0      0      0      0         0
/*      NGA, ST. LOUIS,MO.                                  
/*   EPHEMERIS COMPUTED FROM  3 DAYS OF DATA                
/* CCCCCCCCCCCCCCCCCCCCCCCCCCCCCCCCCCCCCCCCCCCCCCCCCCCCCCCCC
/* CCCCCCCCCCCCCCCCCCCCCCCCCCCCCCCCCCCCCCCCCCCCCCCCCCCCCCCCC
*  2010  9 13 19 30   .00000000                                                 
P  1  14084.554450   9153.833579 -20720.600133   -162.146400                    
V  1 -23114.846132  11923.869715 -10382.164358      -.038686                    
P  2 -13639.304995 -11740.464320 -19675.569227    288.227531                    
V  2   2779.224051 -24788.767024  12402.361654       .028075                    
P  3  24681.890775   8921.103278   4727.187294    607.939726                    
V  3   4081.104706   6119.748329 -30020.419478       .050519                    
P  4  -7656.475490 -21837.774390 -12892.061034    169.062075                    
V  4   4346.127448 -15965.512048  25170.462207       .090396                    
P  5 -22951.741898    442.390331 -13451.544398    -36.281239                    
V  5  14406.909218  -9365.972306 -24816.464112      -.051850                    
P  6  23155.328687  13149.159071   1344.307898    495.112914                    
V  6   -542.309599   3745.131526 -31001.743708      -.149662                    
P  7   6149.285351 -25062.835422  -5839.585175     -1.859628                    
V  7   1865.141721   7624.317111 -30985.190889       .001229                    
P  8   -196.102980 -25479.264437   6385.144821      6.648873                    
V  8   3371.644034  -7780.941683 -31457.386548       .000841                    
P  9 -13708.302150  10533.280840  19615.003761     30.247748                    
V  9    380.777355 -26080.621711  13907.217122       .023334                    
P 10 -13015.108887 -10492.702346 -20894.240384    -52.282090                    
V 10  23523.794178 -11246.845979  -8735.181282      -.008645                    
P 11  11949.999063 -15478.145993  17543.490935    -89.321829                    
V 11   6513.959705  22513.293443  15551.140076      -.026405                    
P 12 -23693.660864  11755.920408  -1155.420333    -73.323713                    
V 12  -2461.902336  -1731.681681  32052.441302       .037413                    
P 13   5453.438435 -14056.191541 -21995.391263    297.487990                    
V 13  21638.602501  17013.278822  -5587.884851      -.008939                    
P 14  13400.815975  19976.579731  11568.451574     88.297785                    
V 14 -12363.988501  -7492.369421  27484.451832       .037163                    
P 15 -21605.960897  -1147.261118  15510.250078   -209.653468                    
V 15 -15192.305299 -12601.905158 -21993.328606       .053150                    
P 16  19536.780026   4474.582273 -17536.364711   -108.218325                    
V 16 -19795.923227  10115.628326 -19169.460720      -.034342                    
P 17 -10896.193112 -20007.196956  13939.236077    170.605848                    
V 17  15264.907286   8661.194246  24338.385053       .014179                    
P 18 -10176.001733  18050.481732  16694.587094     92.862191                    
V 18 -20041.482526   6335.162004 -19786.090889       .022555                    
P 19  21076.139051   2538.158901  16176.398705    -65.629264                    
V 19  14696.031235  14243.597752 -21080.389310      -.031289                    
P 20  22918.825934 -13263.027074  -1756.886865     51.159573                    
V 20   3525.945058   2284.512002  31116.127298      -.003942                    
P 21  -4260.177327  25712.266735  -2506.663055    -87.944323                    
V 21  -3900.080694  -4060.044794 -31300.090297      -.026737                    
P 22   2611.327841  16010.354081  21194.131723    163.061432                    
V 22 -24590.659971  10240.652403  -4841.173139      -.007441                    
P 23  15058.368524  -6953.124436 -20827.265116    353.960376                    
V 23  21135.513593  15708.426672   9712.325718      -.018287                    
P 24  14012.993814   8614.896365  20984.387935    321.348694                    
V 24  -4166.754235  26126.665473  -7718.680355       .031862                    
P 25 -17156.901677  17043.087478 -11023.891842    -41.406909                    
V 25 -13595.759710   3991.319965  27369.823576      -.010738                    
P 26 -22663.589142 -11498.348591   7861.416187    -10.317213                    
V 26  -7327.187309  -7847.634856 -30014.808423      -.070161                    
P 27 -15020.425112   4068.419717  22177.741832    188.686871                    
V 27    403.170807 -26526.961770   5503.027045       .034597                    
P 28    801.478093 -16270.126229  21407.800210     -3.702933                    
V 28  24263.484502  -9627.486464  -8698.674179       .014590                    
P 29  -6545.219936  13912.761461 -21578.009271    149.111401                    
V 29 -22340.751210 -16193.725092  -3610.639068       .026818                    
P 30 -15618.617501  17950.823551 -12174.561119    278.078052                    
V 30 -14226.362672   4851.186908  26325.162262       .033317                    
P 31   8376.824933  20051.506947 -14945.167477     -9.514446                    
V 31  -3493.721228  19146.499081  23579.491313       .030837                    
P 32  25299.939570  -6521.682850   3846.665677    -84.546770                    
V 32  -3145.621062   4540.779450  31415.284291      -.089547                    
EOF
